ONEWEB-0645             
1 55809U 23029P   25083.57180396  .00000163  00000+0  37495-3 0  9990
2 55809  87.9233  34.3505 0002219  79.2212 280.9170 13.19725430 99604
ONEWEB-0646             
1 55810U 23029Q   25083.60182168  .00000031  00000+0  44855-4 0  9998
2 55810  87.9232  34.3393 0001947  71.9429 288.1916 13.19725001 99596
ONEWEB-0648             
1 55811U 23029R   25083.56076511  .00000103  00000+0  24221-3 0  9992
2 55811  87.9084  19.1164 0002682  63.7029 296.4376 13.14503859100327
ONEWEB-0649             
1 55812U 23029S   25083.56469621  .00000118  00000+0  26162-3 0  9993
2 55812  87.9230  34.3374 0002309  70.5079 289.6303 13.19727515 99626
ONEWEB-0650             
1 55813U 23029T   25083.55995808  .00000154  00000+0  35316-3 0  9995
2 55813  87.9232  34.3459 0002014  74.4450 285.6905 13.19727607 99594
ONEWEB-0652             
1 55814U 23029U   25083.54170670 -.00000154  00000+0 -44874-3 0  9998
2 55814  87.9086  19.1307 0001799  82.7127 277.4207 13.14500664100298
ONEWEB-0653             
1 55815U 23029V   25083.29751901 -.00000058  00000+0 -19071-3 0  9997
2 55815  87.9090  19.1658 0001996  84.6185 275.5172 13.14502859100295
ONEWEB-0654             
1 55816U 23029W   25083.36887596 -.00000007  00000+0 -54667-4 0  9991
2 55816  87.9086  19.1544 0001806  93.2240 266.9096 13.14502338100328
